IRIDIUM 119             
1 42959U 17061E   24354.86248473  .00000091  00000+0  25524-4 0  9995
2 42959  86.3970 252.6707 0002054  73.8381 286.3041 14.34217833376796
IRIDIUM 107             
1 42960U 17061F   24354.95127973  .00000035  00000+0  54887-5 0  9991
2 42960  86.3973 252.6518 0001631  79.9730 280.1649 14.34216468376818
IRIDIUM 132             
1 42961U 17061G   24354.81809217  .00000559  00000+0  19243-3 0  9991
2 42961  86.3972 252.6908 0001851  83.2258 276.9149 14.34217663376791
IRIDIUM 136             
1 42962U 17061H   24354.78003014 -.00000361  00000+0 -13586-3 0  9996
2 42962  86.3974 252.7108 0001825  70.8031 289.3363 14.34217023376807
IRIDIUM 139             
1 42963U 17061J   24354.78637341  .00000052  00000+0  11582-4 0  9993
2 42963  86.3976 252.7610 0001776  77.6923 282.4471 14.34216486376815
IRIDIUM 125             
1 42964U 17061K   24354.77368253  .00000225  00000+0  73417-4 0  9993
2 42964  86.3975 252.8175 0002052  64.1816 295.9591 14.34216097376823
IRIDIUM 135             
1 43070U 17083A   24354.60827976  .00000103  00000+0  29667-4 0  9993
2 43070  86.3987 189.6059 0002131  93.5730 266.5709 14.34219179366099
IRIDIUM 138             
1 43071U 17083B   24355.05225868  .00000109  00000+0  31961-4 0  9992
2 43071  86.3976 189.1150 0002346  73.4440 286.7013 14.34217358366143
